[{"OBJECT_NAME":"STARLINK-35563","OBJECT_ID":"2025-236B","EPOCH":"2026-03-09T11:36:44.379936","MEAN_MOTION":15.30195,"ECCENTRICITY":0.00015405,"INCLINATION":53.1602,"RA_OF_ASC_NODE":104.7929,"ARG_OF_PERICENTER":70.0195,"MEAN_ANOMALY":290.0972,"EPHEMERIS_TYPE":0,"CLASSIFICATION_TYPE":"U","NORAD_CAT_ID":66087,"ELEMENT_SET_NO":999,"REV_AT_EPOCH":2285,"BSTAR":0.00096792196,"MEAN_MOTION_DOT":0.00028413,"MEAN_MOTION_DDOT":0},{"OBJECT_NAME":"TRANSPORTER-1 OBJECT L","OBJECT_ID":"2021-006L","EPOCH":"2026-03-09T22:38:42.795168","MEAN_MOTION":15.33192932,"ECCENTRICITY":0.00114726,"INCLINATION":97.2368,"RA_OF_ASC_NODE":117.6447,"ARG_OF_PERICENTER":180.5165,"MEAN_ANOMALY":179.6068,"EPHEMERIS_TYPE":0,"CLASSIFICATION_TYPE":"U","NORAD_CAT_ID":47423,"ELEMENT_SET_NO":999,"REV_AT_EPOCH":28445,"BSTAR":0.00025636794,"MEAN_MOTION_DOT":8.162e-5,"MEAN_MOTION_DDOT":0}]
